{"fetched_at":"2026-03-29T16:36:15Z","count":15609,"tles":[{"name":"STARLINK-36375","line1":"1 67920U 26036S   26087.82313418  .00037096  00000+0  13179-2 0  9991","line2":"2 67920  43.0018 137.6097 0000489 302.7420  57.3385 15.28390046  6649","category":"Starlink"}]}